TIANMU-1 20             
1 58661U 23208B   26202.26674431  .00006266  00000+0  19758-3 0  9998
2 58661  97.4466 319.4280 0006923 189.6166 170.4945 15.33223889142649
TIANMU-1 21             
1 58662U 23208C   26202.26795987  .00007477  00000+0  21811-3 0  9997
2 58662  97.4528 322.2599 0007292 182.3293 177.7918 15.35623247142795
TIANMU-1 22             
1 58663U 23208D   26202.31440969  .00005678  00000+0  18934-3 0  9994
2 58663  97.4521 318.7114 0003324 193.8179 166.2972 15.31481480142558
TIANMU-1 15             
1 58700U 24004A   26202.30734764  .00004115  00000+0  15828-3 0  9993
2 58700  97.4678  28.4989 0006589 203.9087 156.1847 15.26952937140983
TIANMU-1 16             
1 58701U 24004B   26202.29639979  .00003855  00000+0  14804-3 0  9997
2 58701  97.4627  27.7013 0004854 218.2864 141.8030 15.27055865140983
TIANMU-1 17             
1 58702U 24004C   26202.28189116  .00004004  00000+0  15367-3 0  9992
2 58702  97.4654  28.1842 0004251 223.3419 136.7486 15.27053468140977
TIANMU-1 18             
1 58703U 24004D   26202.32385134  .00004027  00000+0  15493-3 0  9991
2 58703  97.4670  28.4894 0004317 198.9090 161.1989 15.26968020140980
INSAT-3DS               
1 58990U 24033A   26202.15808644 -.00000155  00000+0  00000+0 0  9991
2 58990   0.0753 263.6633 0001318 219.7720 314.4469  1.00270782 47401
METEOR-M2 4             
1 59051U 24039A   26202.29926998  .00000016  00000+0  26855-4 0  9990
2 59051  98.7030 161.1722 0008225  73.6059 286.6023 14.22432637124116
GOES 19                 
1 60133U 24119A   26202.24504056 -.00000247  00000+0  00000+0 0  9990
2 60133   0.0192 134.5980 0000307  46.8520 130.5766  1.00272436  7305
MTG-S1                  
1 64723U 25143A   26202.25986062 -.00000006  00000+0  00000+0 0  9992
2 64723   0.5813 346.5166 0003219 257.2530 148.4577  1.00275455  3762
METOP-SGA1              
1 65159U 25172A   26195.76442858  .00000019  00000+0  29163-4 0  9994
2 65159  98.6631 254.9090 0007098 333.3306  26.7504 14.19819127 47700
FENGYUN 3H              
1 65815U 25219A   26201.79431137  .00000012  00000+0  26132-4 0  9990
2 65815  98.6770 141.9111 0001023  62.0460 298.0820 14.19925299 42158
