OBJECT_NAME,OBJECT_ID,EPOCH,MEAN_MOTION,ECCENTRICITY,INCLINATION,RA_OF_ASC_NODE,ARG_OF_PERICENTER,MEAN_ANOMALY,EPHEMERIS_TYPE,CLASSIFICATION_TYPE,NORAD_CAT_ID,ELEMENT_SET_NO,REV_AT_EPOCH,BSTAR,MEAN_MOTION_DOT,MEAN_MOTION_DDOT
TIANMU-1 20,2023-208B,2026-07-21T06:24:06.708384,15.33223889,.00069237,97.4466,319.4280,189.6166,170.4945,0,U,58661,999,14264,.19758487E-3,.6266E-4,0
TIANMU-1 21,2023-208C,2026-07-21T06:25:51.732768,15.35623247,.00072924,97.4528,322.2599,182.3293,177.7918,0,U,58662,999,14279,.21810897E-3,.7477E-4,0
TIANMU-1 22,2023-208D,2026-07-21T07:32:44.997216,15.31481480,.00033241,97.4521,318.7114,193.8179,166.2972,0,U,58663,999,14255,.18934429E-3,.5678E-4,0
TIANMU-1 15,2024-004A,2026-07-21T07:22:34.836096,15.26952937,.00065897,97.4678,28.4989,203.9087,156.1847,0,U,58700,999,14098,.15828391E-3,.4115E-4,0
TIANMU-1 16,2024-004B,2026-07-21T07:06:48.941856,15.27055865,.00048546,97.4627,27.7013,218.2864,141.8030,0,U,58701,999,14098,.14803963E-3,.3855E-4,0
TIANMU-1 17,2024-004C,2026-07-21T06:45:55.396224,15.27053468,.00042519,97.4654,28.1842,223.3419,136.7486,0,U,58702,999,14097,.15366855E-3,.4004E-4,0
TIANMU-1 18,2024-004D,2026-07-21T07:46:20.755776,15.26968020,.00043172,97.4670,28.4894,198.9090,161.1989,0,U,58703,999,14098,.15492646E-3,.4027E-4,0
INSAT-3DS,2024-033A,2026-07-21T03:47:38.668416,1.00270782,.00013183,0.0753,263.6633,219.7720,314.4469,0,U,58990,999,4740,0,-.155E-5,0
METEOR-M2 4,2024-039A,2026-07-21T07:10:56.926272,14.22432637,.0008225,98.7030,161.1722,73.6059,286.6023,0,U,59051,999,12411,.26855165E-4,.16E-6,0
GOES 19,2024-119A,2026-07-21T05:52:51.504384,1.00272436,.00003075,0.0192,134.5980,46.8520,130.5766,0,U,60133,999,730,0,-.247E-5,0
MTG-S1,2025-143A,2026-07-21T06:14:11.957568,1.00275455,.00032199,0.5813,346.5166,257.2530,148.4577,0,U,64723,999,376,0,-.6E-7,0
METOP-SGA1,2025-172A,2026-07-14T18:20:46.629312,14.19819127,.00070989,98.6631,254.9090,333.3306,26.7504,0,U,65159,999,4770,.2916334E-4,.19E-6,0
FENGYUN 3H,2025-219A,2026-07-20T19:03:48.502368,14.19925299,.00010232,98.6770,141.9111,62.0460,298.0820,0,U,65815,999,4215,.26131697E-4,.12E-6,0
